ALOS-4 (DAICHI-4)       
1 60182U 24123A   24266.52085109  .00003852  00000+0  52224-3 0  9994
2 60182  97.9211   1.7797 0001453  96.3717 263.7660 14.79480167 12331
